{
    "links": {
        "self": "http://www.neowsapp.com/rest/v1/neo/3600477?api_key=iIulBulltgU6a56xZRHN4H3l9WmuAYTsLGpBGhQ2"
    },
    "id": "3600477",
    "neo_reference_id": "3600477",
    "name": "(2012 EK1)",
    "designation": "2012 EK1",
    "nasa_jpl_url": "http://ssd.jpl.nasa.gov/sbdb.cgi?sstr=3600477",
    "absolute_magnitude_h": 24.3,
    "estimated_diameter": {
        "kilometers": {
            "estimated_diameter_min": 0.0366906138,
            "estimated_diameter_max": 0.0820427065
        },
        "meters": {
            "estimated_diameter_min": 36.6906137531,
            "estimated_diameter_max": 82.0427064882
        },
        "miles": {
            "estimated_diameter_min": 0.0227984834,
            "estimated_diameter_max": 0.0509789586
        },
        "feet": {
            "estimated_diameter_min": 120.3760332259,
            "estimated_diameter_max": 269.1689931548
        }
    },
    "is_potentially_hazardous_asteroid": false,
    "close_approach_data": [
        {
            "close_approach_date": "2012-02-29",
            "close_approach_date_full": "2012-Feb-29 16:22",
            "epoch_date_close_approach": 1330532520000,
            "relative_velocity": {
                "kilometers_per_second": "24.1575480496",
                "kilometers_per_hour": "86967.1729786536",
                "miles_per_hour": "54038.0192322084"
            },
            "miss_distance": {
                "astronomical": "0.0376146615",
                "lunar": "14.6321033235",
                "kilometers": "5627073.241171005",
                "miles": "3496501.177149669"
            },
            "orbiting_body": "Earth"
        },
        {
            "close_approach_date": "2167-03-13",
            "close_approach_date_full": "2167-Mar-13 09:11",
            "epoch_date_close_approach": 6222906660000,
            "relative_velocity": {
                "kilometers_per_second": "26.9995018224",
                "kilometers_per_hour": "97198.2065607606",
                "miles_per_hour": "60395.1856266015"
            },
            "miss_distance": {
                "astronomical": "0.294550073",
                "lunar": "114.579978397",
                "kilometers": "44064063.52914451",
                "miles": "27380139.443073838"
            },
            "orbiting_body": "Earth"
        }
    ],
    "orbital_data": {
        "orbit_id": "5",
        "orbit_determination_date": "2017-04-06 08:50:40",
        "first_observation_date": "2012-03-02",
        "last_observation_date": "2012-03-03",
        "data_arc_in_days": 1,
        "observations_used": 32,
        "orbit_uncertainty": "8",
        "minimum_orbit_intersection": ".0371569",
        "jupiter_tisserand_invariant": "4.580",
        "epoch_osculation": "2455989.5",
        "eccentricity": ".274822908680379",
        "semi_major_axis": "1.339537836910698",
        "inclination": "44.52789859114077",
        "ascending_node_longitude": "340.5183789281417",
        "orbital_period": "566.279584622674",
        "perihelion_distance": ".9714021522834765",
        "perihelion_argument": "137.8378275409222",
        "aphelion_distance": "1.707673521537919",
        "perihelion_time": "2455950.192060456694",
        "mean_anomaly": "24.98917252158971",
        "mean_motion": ".6357283747742326",
        "equinox": "J2000",
        "orbit_class": {
            "orbit_class_type": "APO",
            "orbit_class_description": "Near-Earth asteroid orbits which cross the Earth’s orbit similar to that of 1862 Apollo",
            "orbit_class_range": "a (semi-major axis) > 1.0 AU; q (perihelion) < 1.017 AU"
        }
    },
    "is_sentry_object": false
}